SatCatId,ObjectName,LaunchYear,OrbitalPeriod,LaunchMass,StatusCode,Inclination,Status,UcsData,OrbitClassEstimated,LaunchSiteCountry,Owner,UseType,Purpose,LaunchVehicleClass,TLE1,TLE2,MeanMotion,Eccentricity,OrbitClass
45695,STARLINK-1420,2020,95.59,227.0,+,53.05,Active,1,LEO,USA,USA,Commercial,Communications,Falcon,1 45695U 20035AQ  23027.89675065  .00000588  00000+0  58376-4 0  9992,2 45695  53.0516  99.8834 0001230  92.5141 267.5988 15.06397363147819,15.06397363,0.000123,LEO
45696,STARLINK-1422,2020,95.59,227.0,+,53.06,Active,1,LEO,USA,USA,Commercial,Communications,Falcon,1 45696U 20035AR  23027.57517863 -.00000534  00000+0 -16955-4 0  9999,2 45696  53.0554 121.3266 0001496  83.9133 276.2027 15.06394989147071,15.06394989,0.0001496,LEO
45697,STARLINK-1351,2020,95.59,227.0,+,53.05,Active,1,LEO,USA,USA,Commercial,Communications,Falcon,1 45697U 20035AS  23027.48487103  .00001712  00000+0  13382-3 0  9990,2 45697  53.0522 101.7387 0001198  87.5293 272.5833 15.06401021147754,15.06401021,0.0001198,LEO
45698,STARLINK-1370,2020,95.59,227.0,+,53.05,Active,1,LEO,USA,USA,Commercial,Communications,Falcon,1 45698U 20035AT  23027.47287023  .00002784  00000+0  20570-3 0  9996,2 45698  53.0511 101.7873 0001362  74.2745 285.8394 15.06400147147758,15.06400147,0.0001362,LEO
45699,STARLINK-1398,2020,95.59,227.0,+,53.05,Active,1,LEO,USA,USA,Commercial,Communications,Falcon,1 45699U 20035AU  23027.39640526  .00000305  00000+0  39363-4 0  9997,2 45699  53.0515 102.1369 0001016  89.0226 271.0879 15.06399557147737,15.06399557,0.0001016,LEO
45700,STARLINK-1400,2020,95.59,227.0,+,53.05,Active,1,LEO,USA,USA,Commercial,Communications,Falcon,1 45700U 20035AV  23027.52542148  .00000705  00000+0  66260-4 0  9996,2 45700  53.0529 101.5594 0001338  81.6861 278.4280 15.06392234147347,15.06392234,0.0001338,LEO
45701,STARLINK-1403,2020,95.59,227.0,+,53.05,Active,1,LEO,USA,USA,Commercial,Communications,Falcon,1 45701U 20035AW  23028.15202572  .00019568  00000+0  13288-2 0  9998,2 45701  53.0516  98.7369 0001273 100.5794 259.5338 15.06402631147443,15.06402631,0.0001273,LEO
45702,STARLINK-1405,2020,95.59,227.0,+,53.05,Active,1,LEO,USA,USA,Commercial,Communications,Falcon,1 45702U 20035AX  23027.47013006  .00001236  00000+0  10187-3 0  9994,2 45702  53.0531 101.8032 0001189  99.9972 260.1151 15.06393117147741,15.06393117,0.0001189,LEO
45703,STARLINK-1407,2020,95.59,227.0,+,53.05,Active,1,LEO,USA,USA,Commercial,Communications,Falcon,1 45703U 20035AY  23027.93087460 -.00000100  00000+0  12169-4 0  9994,2 45703  53.0531  99.7326 0001393  91.7178 268.3971 15.06394987147407,15.06394987,0.0001393,LEO
45704,STARLINK-1409,2020,95.59,227.0,+,53.05,Active,1,LEO,USA,USA,Commercial,Communications,Falcon,1 45704U 20035AZ  23027.55856121  .00001535  00000+0  12188-3 0  9993,2 45704  53.0533 131.4027 0001198 106.3116 253.8005 15.06402539146937,15.06402539,0.0001198,LEO
45705,STARLINK-1410,2020,95.59,227.0,+,53.06,Active,1,LEO,USA,USA,Commercial,Communications,Falcon,1 45705U 20035BA  23027.58531263  .00000330  00000+0  41052-4 0  9999,2 45705  53.0556 131.2702 0001111 103.2956 256.8157 15.06396581146934,15.06396581,0.0001111,LEO
45706,STARLINK-1411,2020,95.59,227.0,+,53.05,Active,1,LEO,USA,USA,Commercial,Communications,Falcon,1 45706U 20035BB  23027.90875653  .00000564  00000+0  56744-4 0  9993,2 45706  53.0557  99.8274 0001217  92.1194 267.9934 15.06395816147809,15.06395816,0.0001217,LEO
45707,STARLINK-1412,2020,95.59,227.0,+,53.05,Active,1,LEO,USA,USA,Commercial,Communications,Falcon,1 45707U 20035BC  23028.10411121 -.00000164  00000+0  78609-5 0  9995,2 45707  53.0520  98.9612 0001333  84.7129 275.4012 15.06393420147439,15.0639342,0.0001333,LEO
45708,STARLINK-1418,2020,95.59,227.0,+,53.05,Active,1,LEO,USA,USA,Commercial,Communications,Falcon,1 45708U 20035BD  23027.48118378  .00000305  00000+0  39357-4 0  9996,2 45708  53.0538 101.7508 0001198 103.2143 256.8980 15.06399301147754,15.06399301,0.0001198,LEO
45709,STARLINK-1421,2020,95.59,227.0,+,53.05,Active,1,LEO,USA,USA,Commercial,Communications,Falcon,1 45709U 20035BE  23027.98248145  .00002334  00000+0  17558-3 0  9990,2 45709  53.0513  99.5086 0000988  96.6512 263.4590 15.06393003147411,15.06393003,9.88e-05,LEO
45710,STARLINK-1423,2020,95.59,227.0,+,53.05,Active,1,LEO,USA,USA,Commercial,Communications,Falcon,1 45710U 20035BF  23027.51435960  .00000486  00000+0  51523-4 0  9991,2 45710  53.0507 101.6099 0001293  84.3599 275.7537 15.06397318147751,15.06397318,0.0001293,LEO
45711,STARLINK-1433,2020,95.59,227.0,+,53.06,Active,1,LEO,USA,USA,Commercial,Communications,Falcon,1 45711U 20035BG  23027.49592887  .00000907  00000+0  79751-4 0  9992,2 45711  53.0553 101.6891 0001348 102.3189 257.7951 15.06396593147743,15.06396593,0.0001348,LEO
45712,STARLINK-1434,2020,95.59,227.0,+,53.05,Active,1,LEO,USA,USA,Commercial,Communications,Falcon,1 45712U 20035BH  23027.42592811 -.00001628  00000+0 -90480-4 0  9998,2 45712  53.0546 101.9906 0001249  90.1446 269.9686 15.06373958147746,15.06373958,0.0001249,LEO
45713,STARLINK-1436 (VISORSAT),2020,95.59,227.0,+,53.06,Active,1,LEO,USA,USA,Commercial,Communications,Falcon,1 45713U 20035BJ  23027.57886399  .00002028  00000+0  15501-3 0  9995,2 45713  53.0564 121.3083 0001490  73.0495 287.0657 15.06400263147076,15.06400263,0.000149,LEO
45714,STARLINK-1437,2020,95.59,227.0,+,53.05,Active,1,LEO,USA,USA,Commercial,Communications,Falcon,1 45714U 20035BK  23027.90138207  .00011047  00000+0  75943-3 0  9998,2 45714  53.0530  99.8687 0000969  86.2083 273.9016 15.06395332147813,15.06395332,9.69e-05,LEO
45721,HAIYANG-1D,2020,100.41,442.0,+,98.54,Active,1,LEO,PRC,China,Government,Earth Observation,Long March,1 45721U 20036A   23028.17357115  .00000412  00000+0  16288-3 0  9999,2 45721  98.5403 328.4578 0003067 123.6515 236.4965 14.34165625137818,14.34165625,0.0003067,LEO
45726,ANDESITE,2020,96.41,9.0,+,97.75,Active,1,LEO,New Zealand,USA,Civil,Space Science/Technology Development,Electron,1 45726U 20037D   23028.19659855  .00003863  00000+0  36979-3 0  9995,2 45726  97.7483 206.7499 0014531 357.9084   2.2006 14.93701335140428,14.93701335,0.0014531,LEO
45727,M2 PATHFINDER,2020,96.46,9.0,+,97.74,Active,1,LEO,New Zealand,Australia,Civil/Military,Technology Development,Electron,1 45727U 20037E   23027.43322841  .00003520  00000+0  34482-3 0  9991,2 45727  97.7429 204.1010 0012834  16.7273 343.4372 14.92849942140235,14.92849942,0.0012834,LEO
45730,STARLINK-1461,2020,95.59,227.0,+,53.05,Active,1,LEO,USA,USA,Commercial,Communications,Falcon,1 45730U 20038A   23028.17782237  .00000452  00000+0  49257-4 0  9995,2 45730  53.0544 298.6130 0001349  89.8154 270.2990 15.06404851146018,15.06404851,0.0001349,LEO
45731,STARLINK-1465,2020,95.59,227.0,+,53.05,Active,1,LEO,USA,USA,Commercial,Communications,Falcon,1 45731U 20038B   23028.05988416 -.00000224  00000+0  38753-5 0  9998,2 45731  53.0510 299.1578 0001286 100.6822 259.4312 15.06394936145847,15.06394936,0.0001286,LEO
45732,STARLINK-1466,2020,95.59,227.0,+,53.05,Active,1,LEO,USA,USA,Commercial,Communications,Falcon,1 45732U 20038C   23027.98248034  .00000767  00000+0  70377-4 0  9993,2 45732  53.0505 299.5065 0001279  95.9240 264.1895 15.06393936145982,15.06393936,0.0001279,LEO
45733,STARLINK-1467,2020,95.15,227.0,+,53.05,Active,1,LEO,USA,USA,Commercial,Communications,Falcon,1 45733U 20038D   23028.11304727  .00032262  00000+0  17935-2 0  9996,2 45733  53.0533 295.3157 0001960 130.2002 229.9162 15.13427797146041,15.13427797,0.000196,LEO
45734,STARLINK-1468,2020,95.24,227.0,+,53.06,Active,1,LEO,USA,USA,Commercial,Communications,Falcon,1 45734U 20038E   23027.12705348  .00005804  00000+0  35160-3 0  9994,2 45734  53.0555 300.7636 0001757 108.5923 251.5259 15.11939684144770,15.11939684,0.0001757,LEO
45735,STARLINK-1471,2020,95.59,227.0,+,53.05,Active,1,LEO,USA,USA,Commercial,Communications,Falcon,1 45735U 20038F   23028.14097214  .00001078  00000+0  91240-4 0  9995,2 45735  53.0534 298.7883 0001326  83.5154 276.5986 15.06400626146003,15.06400626,0.0001326,LEO
45736,STARLINK-1472,2020,93.16,227.0,+,53.06,Active,1,LEO,USA,USA,Commercial,Communications,Falcon,1 45736U 20038G   23028.13928666  .00027251  00000+0  56117-3 0  9993,2 45736  53.0586 215.5232 0000897 344.0692  16.0286 15.45752497147190,15.45752497,8.97e-05,LEO
45738,STARLINK-1474,2020,95.59,227.0,+,53.05,Active,1,LEO,USA,USA,Commercial,Communications,Falcon,1 45738U 20038J   23028.12991445  .00000870  00000+0  77299-4 0  9992,2 45738  53.0508 298.8451 0001282  94.3584 265.7551 15.06398699146001,15.06398699,0.0001282,LEO
45739,STARLINK-1475,2020,95.59,227.0,+,53.05,Active,1,LEO,USA,USA,Commercial,Communications,Falcon,1 45739U 20038K   23027.87832962 -.00000094  00000+0  12601-4 0  9997,2 45739  53.0527 259.9572 0001071  87.5979 272.5132 15.06393827145405,15.06393827,0.0001071,LEO
45740,STARLINK-1479,2020,95.59,227.0,+,53.05,Active,1,LEO,USA,USA,Commercial,Communications,Falcon,1 45740U 20038L   23028.13728724  .00013872  00000+0  94822-3 0  9990,2 45740  53.0530 298.8035 0001314  85.3042 274.8097 15.06405138146005,15.06405138,0.0001314,LEO
45741,STARLINK-1480,2020,95.59,227.0,+,53.05,Active,1,LEO,USA,USA,Commercial,Communications,Falcon,1 45741U 20038M   23028.10779886  .00005840  00000+0  41061-3 0  9996,2 45741  53.0540 298.9291 0001198  91.5463 268.5663 15.06400744146005,15.06400744,0.0001198,LEO
45742,STARLINK-1481,2020,95.59,227.0,+,53.06,Active,1,LEO,USA,USA,Commercial,Communications,Falcon,1 45742U 20038N   23028.03407963  .00000980  00000+0  84698-4 0  9997,2 45742  53.0545 299.2641 0001305  82.8016 277.3121 15.06398255145987,15.06398255,0.0001305,LEO
45743,STARLINK-1483,2020,95.59,227.0,+,53.05,Active,1,LEO,USA,USA,Commercial,Communications,Falcon,1 45743U 20038P   23028.05156220 -.00000245  00000+0  24663-5 0  9999,2 45743  53.0529 299.1213 0000981  80.7012 279.4088 15.06391423145846,15.06391423,9.81e-05,LEO
